H1 CPF  1  DLR 2022 12 21 13  8552 technosat            
H2  1704205 6203    42829 2022 12 21 00 00 00 2022 12 28 00 00 00    60 1 1  0 0 0
H9
10 0 59936  28800.000000  0       6680671.720      -1533426.830       1258146.248
10 0 59936  28860.000000  0       6565951.148      -1598330.258       1697575.025
10 0 59936  28920.000000  0       6422952.019      -1655352.039       2129778.436
10 0 59936  28980.000000  0       6252341.142      -1704004.485       2552914.082
10 0 59936  29040.000000  0       6054907.736      -1743841.808       2965177.526
10 0 59936  29100.000000  0       5831559.680      -1774463.149       3364810.236
10 0 59936  29160.000000  0       5583319.145      -1795515.325       3750107.298
10 0 59936  29220.000000  0       5311317.720      -1806695.331       4119424.859
10 0 59936  29280.000000  0       5016791.019      -1807752.554       4471187.268
10 0 59936  29340.000000  0       4701072.855      -1798490.686       4803893.888
10 0 59936  29400.000000  0       4365588.999      -1778769.334       5116125.593
10 0 59936  29460.000000  0       4011850.492      -1748505.388       5406550.930
10 0 59936  29520.000000  0       3641446.527      -1707674.053       5673931.838
10 0 59936  29580.000000  0       3256036.998      -1656309.567       5917128.847
10 0 59936  29640.000000  0       2857344.849      -1594505.595       6135105.821
10 0 59936  29700.000000  0       2447148.217      -1522415.317       6326934.319
10 0 59936  29760.000000  0       2027272.284      -1440251.238       6491797.499
10 0 59936  29820.000000  0       1599580.976      -1348284.640       6628993.504
10 0 59936  29880.000000  0       1165968.503      -1246844.695       6737938.381
10 0 59936  29940.000000  0        728350.817      -1136317.278       6818168.432
10 0 59936  30000.000000  0        288657.061      -1017143.476       6869342.091
10 0 59936  30060.000000  0       -151179.040       -889817.793       6891241.291
10 0 59936  30120.000000  0       -589227.708       -754886.092       6883772.315
10 0 59936  30180.000000  0      -1023571.642       -612943.252       6846966.240
10 0 59936  30240.000000  0      -1452314.500       -464630.503       6780978.794
10 0 59936  30300.000000  0      -1873589.210       -310632.515       6686089.714
10 0 59936  30360.000000  0      -2285566.168       -151674.240       6562701.663
10 0 59936  30420.000000  0      -2686461.300         11482.512       6411338.634
10 0 59936  30480.000000  0      -3074543.911        178042.718       6232643.821
10 0 59936  30540.000000  0      -3448144.315        347181.978       6027377.039
10 0 59936  30600.000000  0      -3805661.256        518050.578       5796411.611
10 0 59936  30660.000000  0      -4145568.981        689777.710       5540730.705
10 0 59936  30720.000000  0      -4466423.962        861475.865       5261423.265
10 0 59936  30780.000000  0      -4766871.305       1032245.392       4959679.464
10 0 59936  30840.000000  0      -5045650.764       1201179.170       4636785.657
10 0 59936  30900.000000  0      -5301602.270       1367367.359       4294118.851
10 0 59936  30960.000000  0      -5533670.987       1529902.212       3933140.820
10 0 59936  31020.000000  0      -5740911.887       1687882.952       3555391.835
10 0 59936  31080.000000  0      -5922493.834       1840420.649       3162483.997
10 0 59936  31140.000000  0      -6077703.126       1986643.078       2756094.251
10 0 59936  31200.000000  0      -6205946.482       2125699.539       2337957.070
10 0 59936  31260.000000  0      -6306753.473       2256765.612       1909856.871
10 0 59936  31320.000000  0      -6379778.349       2379047.836       1473620.131
10 0 59936  31380.000000  0      -6424801.212       2491788.234       1031107.276
10 0 59936  31440.000000  0      -6441728.505       2594268.652        584204.450
10 0 59936  31500.000000  0      -6430592.965       2685814.915        134815.231
10 0 59936  31560.000000  0      -6391552.946       2765800.781       -315147.806
10 0 59936  31620.000000  0      -6324891.071       2833651.632       -763771.507
10 0 59936  31680.000000  0      -6231012.313       2888847.922      -1209150.502
10 0 59936  31740.000000  0      -6110441.519       2930928.354      -1649395.524
10 0 59936  31800.000000  0      -5963820.351       2959492.783      -2082641.684
10 0 59936  31860.000000  0      -5791903.552       2974204.755      -2507056.552
10 0 59936  31920.000000  0      -5595554.775       2974793.706      -2920847.954
10 0 59936  31980.000000  0      -5375741.956       2961056.824      -3322271.569
10 0 59936  32040.000000  0      -5133532.197       2932860.583      -3709638.257
10 0 59936  32100.000000  0      -4870086.240       2890141.934      -4081321.034
10 0 59936  32160.000000  0      -4586652.591       2832909.136      -4435761.734
10 0 59936  32220.000000  0      -4284561.288       2761242.198      -4771477.298
10 0 59936  32280.000000  0      -3965217.378       2675293.004      -5087065.663
10 0 59936  32340.000000  0      -3630094.157       2575285.108      -5381211.222
10 0 59936  32400.000000  0      -3280726.267       2461513.193      -5652689.899
10 0 59936  32460.000000  0      -2918702.597       2334342.201      -5900373.898
10 0 59936  32520.000000  0      -2545658.974       2194206.133      -6123236.040
10 0 59936  32580.000000  0      -2163270.685       2041606.492      -6320353.613
10 0 59936  32640.000000  0      -1773244.947       1877110.404      -6490911.695
10 0 59936  32700.000000  0      -1377313.461       1701348.494      -6634206.065
10 0 59936  32760.000000  0       -977224.907       1515012.477      -6749645.802
10 0 59936  32820.000000  0       -574737.368       1318852.407      -6836755.393
10 0 59936  32880.000000  0       -171610.874       1113673.717      -6895176.315
10 0 59936  32940.000000  0        230399.929        900334.041      -6924668.357
10 0 59936  33000.000000  0        629553.163        679739.736      -6925110.604
10 0 59936  33060.000000  0       1024127.115        452842.133      -6896501.902
10 0 59936  33120.000000  0       1412427.439        220633.549      -6838960.771
10 0 59936  33180.000000  0       1792794.160        -15856.901      -6752724.917
10 0 59936  33240.000000  0       2163608.482       -255567.672      -6638150.375
10 0 59936  33300.000000  0       2523299.512       -497409.355      -6495710.330
10 0 59936  33360.000000  0       2870350.840       -740269.483      -6325993.363
10 0 59936  33420.000000  0       3203306.775       -983017.441      -6129701.231
10 0 59936  33480.000000  0       3520778.325      -1224509.488      -5907646.347
10 0 59936  33540.000000  0       3821449.016      -1463593.975      -5660748.903
10 0 59936  33600.000000  0       4104080.483      -1699116.746      -5390033.461
10 0 59936  33660.000000  0       4367517.676      -1929926.610      -5096625.078
10 0 59936  33720.000000  0       4610693.743      -2154880.862      -4781745.022
10 0 59936  33780.000000  0       4832634.537      -2372850.858      -4446706.082
10 0 59936  33840.000000  0       5032462.761      -2582727.604      -4092907.479
10 0 59936  33900.000000  0       5209401.729      -2783427.346      -3721829.371
10 0 59936  33960.000000  0       5362778.718      -2973897.124      -3335026.961
10 0 59936  34020.000000  0       5492027.868      -3153120.261      -2934124.204
10 0 59936  34080.000000  0       5596692.590      -3320121.764      -2520807.137
10 0 59936  34140.000000  0       5676427.440      -3473973.557      -2096816.902
10 0 59936  34200.000000  0       5730999.528      -3613799.577      -1663942.533
10 0 59936  34260.000000  0       5760289.441      -3738780.725      -1224013.403
10 0 59936  34320.000000  0       5764291.552      -3848159.549       -778891.403
10 0 59936  34380.000000  0       5743113.815      -3941244.641       -330462.983
10 0 59936  34440.000000  0       5696977.052      -4017414.790        119368.995
10 0 59936  34500.000000  0       5626213.628      -4076122.835        568693.560
10 0 59936  34560.000000  0       5531265.577      -4116899.185       1015599.980
10 0 59936  34620.000000  0       5412682.203      -4139354.931       1458186.203
10 0 59936  34680.000000  0       5271117.105      -4143184.504       1894567.269
10 0 59936  34740.000000  0       5107324.691      -4128167.913       2322883.565
10 0 59936  34800.000000  0       4922156.242      -4094172.641       2741308.985
10 0 59936  34860.000000  0       4716555.516      -4041155.066       3148058.963
10 0 59936  34920.000000  0       4491553.935      -3969161.430       3541398.305
10 0 59936  34980.000000  0       4248265.382      -3878328.407       3919648.789
10 0 59936  35040.000000  0       3987880.578      -3768883.238       4281196.563
10 0 59936  35100.000000  0       3711661.031      -3641143.337       4624499.208
10 0 59936  35160.000000  0       3420932.725      -3495515.408       4948092.365
10 0 59936  35220.000000  0       3117079.632      -3332494.169       5250595.997
10 0 59936  35280.000000  0       2801536.998      -3152660.655       5530720.350
10 0 59936  35340.000000  0       2475784.349      -2956680.049       5787271.477
10 0 59936  35400.000000  0       2141338.358      -2745299.124       6019156.249
10 0 59936  35460.000000  0       1799745.622      -2519343.300       6225386.924
10 0 59936  35520.000000  0       1452575.394      -2279713.324       6405085.257
10 0 59936  35580.000000  0       1101412.235      -2027381.581       6557486.179
10 0 59936  35640.000000  0        747848.662      -1763388.024       6681940.941
10 0 59936  35700.000000  0        393477.847      -1488835.816       6777919.757
10 0 59936  35760.000000  0         39886.374      -1204886.623       6845014.015
10 0 59936  35820.000000  0       -311352.939       -912755.581       6882937.899
10 0 59936  35880.000000  0       -658688.049       -613706.070       6891529.545
10 0 59936  35940.000000  0      -1000594.615       -309044.203       6870751.749
99
